{
    "ad": {
        "name:en": "Andorra",
        "languages": [
            "ca",
            "es",
            "fr",
            "pt"
        ]
    },
    "ae": {
        "name:en": "United Arab Emirates",
        "languages": [
            "ar"
        ]
    },
    "af": {
        "name:en": "Afghanistan",
        "languages": [
            "fa",
            "ps",
            "uz",
            "tk"
        ]
    },
    "ag": {
        "name:en": "Antigua and Barbuda",
        "languages": [
            "en"
        ]
    },
    "al": {
        "name:en": "Albania",
        "languages": [
            "sq",
            "el",
            "mk",
            "it"
        ]
    },
    "am": {
        "name:en": "Armenia",
        "languages": [
            "hy"
        ]
    },
    "ao": {
        "name:en": "Angola",
        "languages": [
            "pt",
            "kj"
        ]
    },
    "ar": {
        "name:en": "Argentina",
        "languages": [
            "gn",
            "es"
        ]
    },
    "at": {
        "name:en": "Austria",
        "languages": [
            "de",
            "hu",
            "sl",
            "cs",
            "hu",
            "sk",
            "sr",
            "ro"
        ]
    },
    "au": {
        "name:en": "Australia",
        "languages": [
            "en"
        ]
    },
    "az": {
        "name:en": "Azerbaijan",
        "languages": [
            "az",
            "ru"
        ]
    },
    "ba": {
        "name:en": "Bosnia and Herzegovina",
        "languages": [
            "bs",
            "hr",
            "sr"
        ]
    },
    "bb": {
        "name:en": "Barbados",
        "languages": [
            "en"
        ]
    },
    "bd": {
        "name:en": "Bangladesh",
        "languages": [
            "bn",
            "en"
        ]
    },
    "be": {
        "name:en": "Belgium",
        "languages": [
            "nl",
            "fr",
            "de"
        ]
    },
    "bf": {
        "name:en": "Burkina Faso",
        "languages": [
            "fr",
            "ff"
        ]
    },
    "bg": {
        "name:en": "Bulgaria",
        "languages": [
            "bg"
        ]
    },
    "bh": {
        "name:en": "Bahrain",
        "languages": [
            "ar",
            "en"
        ]
    },
    "bi": {
        "name:en": "Burundi",
        "languages": [
            "fr",
            "rn",
            "en",
            "sw"
        ]
    },
    "bj": {
        "name:en": "Benin",
        "languages": [
            "fr"
        ]
    },
    "bn": {
        "name:en": "Brunei",
        "languages": [
            "ms",
            "en"
        ]
    },
    "bo": {
        "name:en": "Bolivia",
        "languages": [
            "ay",
            "gn",
            "qu",
            "es"
        ]
    },
    "br": {
        "name:en": "Brazil",
        "languages": [
            "pt",
            "de",
            "gn"
        ]
    },
    "bs": {
        "name:en": "Bahamas",
        "languages": [
            "en"
        ]
    },
    "bt": {
        "name:en": "Bhutan",
        "languages": [
            "dz"
        ]
    },
    "bw": {
        "name:en": "Botswana",
        "languages": [
            "en",
            "tn"
        ]
    },
    "by": {
        "name:en": "Belarus",
        "languages": [
            "be",
            "ru"
        ]
    },
    "bz": {
        "name:en": "Belize",
        "languages": [
            "en",
            "es"
        ]
    },
    "ca": {
        "name:en": "Canada",
        "languages": [
            "en",
            "fr",
            "cr",
            "iu"
        ]
    },
    "cd": {
        "name:en": "DR Congo",
        "languages": [
            "fr",
            "ln",
            "kg",
            "sw"
        ]
    },
    "cf": {
        "name:en": "Central African Republic",
        "languages": [
            "fr",
            "sg"
        ]
    },
    "cg": {
        "name:en": "Republic of the Congo",
        "languages": [
            "fr",
            "kg",
            "ln"
        ]
    },
    "ch": {
        "name:en": "Switzerland",
        "languages": [
            "fr",
            "de",
            "it",
            "rm"
        ]
    },
    "ci": {
        "name:en": "Ivory Coast",
        "languages": [
            "fr"
        ]
    },
    "cl": {
        "name:en": "Chile",
        "languages": [
            "es"
        ]
    },
    "cm": {
        "name:en": "Cameroon",
        "languages": [
            "en",
            "fr"
        ]
    },
    "cn": {
        "name:en": "China",
        "languages": [
            "zh-CN",
            "zh-TW",
            "en",
            "pt",
            "mn",
            "ug",
            "bo",
            "za",
            "kk",
            "ko"
        ]
    },
    "co": {
        "name:en": "Colombia",
        "languages": [
            "es"
        ]
    },
    "cr": {
        "name:en": "Costa Rica",
        "languages": [
            "es"
        ]
    },
    "cu": {
        "name:en": "Cuba",
        "languages": [
            "es"
        ]
    },
    "cv": {
        "name:en": "Cape Verde",
        "languages": [
            "pt"
        ]
    },
    "cy": {
        "name:en": "Cyprus",
        "languages": [
            "el",
            "tr",
            "hy",
            "ar",
            "en"
        ]
    },
    "cz": {
        "name:en": "Czechia",
        "languages": [
            "cs",
            "sk",
            "be",
            "bg",
            "hr",
            "de",
            "el",
            "hu",
            "pl",
            "ro",
            "ru",
            "sr",
            "uk",
            "vi"
        ]
    },
    "de": {
        "name:en": "Germany",
        "languages": [
            "de",
            "da",
            "ro"
        ]
    },
    "dj": {
        "name:en": "Djibouti",
        "languages": [
            "ar",
            "fr"
        ]
    },
    "dk": {
        "name:en": "Denmark",
        "languages": [
            "da",
            "fo",
            "kl",
            "en"
        ]
    },
    "dm": {
        "name:en": "Dominica",
        "languages": [
            "en"
        ]
    },
    "do": {
        "name:en": "Dominican Republic",
        "languages": [
            "es"
        ]
    },
    "dz": {
        "name:en": "Algeria",
        "languages": [
            "ar",
            "fr"
        ]
    },
    "ec": {
        "name:en": "Ecuador",
        "languages": [
            "es",
            "qu"
        ]
    },
    "ee": {
        "name:en": "Estonia",
        "languages": [
            "et",
            "ru"
        ]
    },
    "eg": {
        "name:en": "Egypt",
        "languages": [
            "ar"
        ]
    },
    "er": {
        "name:en": "Eritrea",
        "languages": [
            "ar",
            "en",
            "ti"
        ]
    },
    "es": {
        "name:en": "Spain",
        "languages": [
            "es",
            "ca",
            "gl",
            "oc",
            "eu",
            "an",
            "fr",
            "pt"
        ]
    },
    "et": {
        "name:en": "Ethiopia",
        "languages": [
            "aa",
            "am",
            "om",
            "so",
            "ti"
        ]
    },
    "fi": {
        "name:en": "Finland",
        "languages": [
            "fi",
            "sv",
            "se"
        ]
    },
    "fj": {
        "name:en": "Fiji",
        "languages": [
            "en",
            "fj"
        ]
    },
    "fm": {
        "name:en": "Micronesia",
        "languages": [
            "en"
        ]
    },
    "fr": {
        "name:en": "France",
        "languages": [
            "fr",
            "co",
            "eu",
            "br",
            "oc"
        ]
    },
    "ga": {
        "name:en": "Gabon",
        "languages": [
            "fr"
        ]
    },
    "gb": {
        "name:en": "United Kingdom",
        "languages": [
            "en",
            "ga",
            "gd",
            "cy",
            "gv"
        ]
    },
    "gd": {
        "name:en": "Grenada",
        "languages": [
            "en"
        ]
    },
    "ge": {
        "name:en": "Georgia",
        "languages": [
            "ka"
        ]
    },
    "gh": {
        "name:en": "Ghana",
        "languages": [
            "en",
            "ee"
        ]
    },
    "gm": {
        "name:en": "Gambia",
        "languages": [
            "en"
        ]
    },
    "gn": {
        "name:en": "Guinea",
        "languages": [
            "fr",
            "ff"
        ]
    },
    "gq": {
        "name:en": "Equatorial Guinea",
        "languages": [
            "fr",
            "pt",
            "es"
        ]
    },
    "gr": {
        "name:en": "Greece",
        "languages": [
            "el"
        ]
    },
    "gt": {
        "name:en": "Guatemala",
        "languages": [
            "es"
        ]
    },
    "gw": {
        "name:en": "Guinea-Bissau",
        "languages": [
            "pt"
        ]
    },
    "gy": {
        "name:en": "Guyana",
        "languages": [
            "en"
        ]
    },
    "hn": {
        "name:en": "Honduras",
        "languages": [
            "es",
            "en"
        ]
    },
    "hr": {
        "name:en": "Croatia",
        "languages": [
            "hr",
            "sr",
            "hu",
            "cs",
            "sk",
            "it",
            "sl"
        ]
    },
    "ht": {
        "name:en": "Haiti",
        "languages": [
            "fr",
            "ht"
        ]
    },
    "hu": {
        "name:en": "Hungary",
        "languages": [
            "hu",
            "hr",
            "de",
            "ro",
            "sr",
            "sk",
            "sl"
        ]
    },
    "id": {
        "name:en": "Indonesia",
        "languages": [
            "id",
            "ms",
            "jv",
            "su"
        ]
    },
    "ie": {
        "name:en": "Ireland",
        "languages": [
            "en",
            "ga"
        ]
    },
    "il": {
        "name:en": "Israel",
        "languages": [
            "ar",
            "he",
            "en",
            "ru"
        ]
    },
    "in": {
        "name:en": "India",
        "languages": [
            "en",
            "hi",
            "as",
            "bn",
            "gu",
            "kn",
            "ks",
            "ml",
            "mr",
            "ne",
            "or",
            "pa",
            "sa",
            "sd",
            "ta",
            "te",
            "ur"
        ]
    },
    "iq": {
        "name:en": "Iraq",
        "languages": [
            "ar",
            "ku",
            "hy",
            "tk"
        ]
    },
    "ir": {
        "name:en": "Iran",
        "languages": [
            "fa",
            "az",
            "ku",
            "tk"
        ]
    },
    "is": {
        "name:en": "Iceland",
        "languages": [
            "is"
        ]
    },
    "it": {
        "name:en": "Italy",
        "languages": [
            "it",
            "fr",
            "oc",
            "de",
            "sl",
            "sq",
            "sc",
            "co"
        ]
    },
    "jm": {
        "name:en": "Jamaica",
        "languages": [
            "en"
        ]
    },
    "jo": {
        "name:en": "Jordan",
        "languages": [
            "ar",
            "ce",
            "hy"
        ]
    },
    "jp": {
        "name:en": "Japan",
        "languages": [
            "ja"
        ]
    },
    "ke": {
        "name:en": "Kenya",
        "languages": [
            "en",
            "sw"
        ]
    },
    "kg": {
        "name:en": "Kyrgyzstan",
        "languages": [
            "ky",
            "ru"
        ]
    },
    "kh": {
        "name:en": "Cambodia",
        "languages": [
            "km"
        ]
    },
    "ki": {
        "name:en": "Kiribati",
        "languages": [
            "en"
        ]
    },
    "km": {
        "name:en": "Comoros",
        "languages": [
            "ar",
            "fr"
        ]
    },
    "kn": {
        "name:en": "Saint Kitts and Nevis",
        "languages": [
            "en"
        ]
    },
    "kp": {
        "name:en": "North Korea",
        "languages": [
            "ko"
        ]
    },
    "kr": {
        "name:en": "South Korea",
        "languages": [
            "ko"
        ]
    },
    "kw": {
        "name:en": "Kuwait",
        "languages": [
            "ar"
        ]
    },
    "kz": {
        "name:en": "Kazakhstan",
        "languages": [
            "kk",
            "ru"
        ]
    },
    "la": {
        "name:en": "Laos",
        "languages": [
            "lo"
        ]
    },
    "lb": {
        "name:en": "Lebanon",
        "languages": [
            "ar",
            "en",
            "fr",
            "hy"
        ]
    },
    "lc": {
        "name:en": "Saint Lucia",
        "languages": [
            "eng"
        ]
    },
    "li": {
        "name:en": "Liechtenstein",
        "languages": [
            "de"
        ]
    },
    "lk": {
        "name:en": "Sri Lanka",
        "languages": [
            "en",
            "si",
            "ta"
        ]
    },
    "lr": {
        "name:en": "Liberia",
        "languages": [
            "en"
        ]
    },
    "ls": {
        "name:en": "Lesotho",
        "languages": [
            "en",
            "st"
        ]
    },
    "lt": {
        "name:en": "Lithuania",
        "languages": [
            "lt",
            "ru"
        ]
    },
    "lu": {
        "name:en": "Luxembourg",
        "languages": [
            "de",
            "fr",
            "lb"
        ]
    },
    "lv": {
        "name:en": "Latvia",
        "languages": [
            "lv",
            "ru"
        ]
    },
    "ly": {
        "name:en": "Libya",
        "languages": [
            "ar"
        ]
    },
    "ma": {
        "name:en": "Morocco",
        "languages": [
            "ar"
        ]
    },
    "mc": {
        "name:en": "Monaco",
        "languages": [
            "fr"
        ]
    },
    "md": {
        "name:en": "Moldova",
        "languages": [
            "ro",
            "ru",
            "uk"
        ]
    },
    "me": {
        "name:en": "Montenegro",
        "languages": []
    },
    "mg": {
        "name:en": "Madagascar",
        "languages": [
            "fr",
            "mg"
        ]
    },
    "mh": {
        "name:en": "Marshall Islands",
        "languages": [
            "en",
            "mh"
        ]
    },
    "mk": {
        "name:en": "North Macedonia",
        "languages": [
            "mk",
            "sq"
        ]
    },
    "ml": {
        "name:en": "Mali",
        "languages": [
            "fr"
        ]
    },
    "mm": {
        "name:en": "Myanmar",
        "languages": [
            "en",
            "my"
        ]
    },
    "mn": {
        "name:en": "Mongolia",
        "languages": [
            "mn"
        ]
    },
    "mr": {
        "name:en": "Mauritania",
        "languages": [
            "ar",
            "ff",
            "fr",
            "wo"
        ]
    },
    "mt": {
        "name:en": "Malta",
        "languages": [
            "en",
            "mt"
        ]
    },
    "mu": {
        "name:en": "Mauritius",
        "languages": [
            "en",
            "fr"
        ]
    },
    "mv": {
        "name:en": "Maldives",
        "languages": [
            "dv"
        ]
    },
    "mw": {
        "name:en": "Malawi",
        "languages": [
            "en",
            "ny"
        ]
    },
    "mx": {
        "name:en": "Mexico",
        "languages": [
            "es"
        ]
    },
    "my": {
        "name:en": "Malaysia",
        "languages": [
            "en",
            "ms",
            "ta",
            "zh-CN"
        ]
    },
    "mz": {
        "name:en": "Mozambique",
        "languages": [
            "pt"
        ]
    },
    "na": {
        "name:en": "Namibia",
        "languages": [
            "af",
            "de",
            "en",
            "hz",
            "ng",
            "tn"
        ]
    },
    "ne": {
        "name:en": "Niger",
        "languages": [
            "ar",
            "fr",
            "ha",
            "kr"
        ]
    },
    "ng": {
        "name:en": "Nigeria",
        "languages": [
            "en",
            "ha",
            "ig",
            "yo"
        ]
    },
    "ni": {
        "name:en": "Nicaragua",
        "languages": [
            "es"
        ]
    },
    "nl": {
        "name:en": "Netherlands",
        "languages": [
            "fy",
            "nl",
            "li",
            "yi"
        ]
    },
    "no": {
        "name:en": "Norway",
        "languages": [
            "no",
            "nb",
            "nn",
            "se"
        ]
    },
    "np": {
        "name:en": "Nepal",
        "languages": [
            "ne"
        ]
    },
    "nr": {
        "name:en": "Nauru",
        "languages": [
            "en",
            "na"
        ]
    },
    "nz": {
        "name:en": "New Zealand",
        "languages": [
            "en",
            "mi"
        ]
    },
    "om": {
        "name:en": "Oman",
        "languages": [
            "ar"
        ]
    },
    "pa": {
        "name:en": "Panama",
        "languages": [
            "es"
        ]
    },
    "pe": {
        "name:en": "Peru",
        "languages": [
            "ay",
            "qu",
            "es"
        ]
    },
    "pg": {
        "name:en": "Papua New Guinea",
        "languages": [
            "en",
            "ho"
        ]
    },
    "ph": {
        "name:en": "Philippines",
        "languages": [
            "ar",
            "en",
            "es",
            "tl"
        ]
    },
    "pk": {
        "name:en": "Pakistan",
        "languages": [
            "en",
            "pa",
            "sd",
            "ps",
            "ur"
        ]
    },
    "pl": {
        "name:en": "Poland",
        "languages": [
            "be",
            "cs",
            "de",
            "he",
            "hy",
            "lt",
            "pl",
            "ro",
            "ru",
            "sk",
            "tt",
            "uk",
            "yi"
        ]
    },
    "pt": {
        "name:en": "Portugal",
        "languages": [
            "pt"
        ]
    },
    "pw": {
        "name:en": "Palau",
        "languages": [
            "en",
            "ja"
        ]
    },
    "py": {
        "name:en": "Paraguay",
        "languages": [
            "gn",
            "es"
        ]
    },
    "qa": {
        "name:en": "Qatar",
        "languages": [
            "ar"
        ]
    },
    "ro": {
        "name:en": "Romania",
        "languages": [
            "ro"
        ]
    },
    "rs": {
        "name:en": "Serbia",
        "languages": [
            "sr"
        ]
    },
    "ru": {
        "name:en": "Russia",
        "languages": [
            "av",
            "az",
            "ba",
            "ce",
            "cv",
            "hy",
            "ka",
            "kk",
            "kv",
            "ky",
            "os",
            "ro",
            "ru",
            "tt",
            "tg",
            "uk",
            "uz"
        ]
    },
    "rw": {
        "name:en": "Rwanda",
        "languages": [
            "en",
            "fr",
            "rw",
            "sw"
        ]
    },
    "sa": {
        "name:en": "Saudi Arabia",
        "languages": [
            "ar",
            "bn",
            "hi",
            "tg"
        ]
    },
    "sb": {
        "name:en": "Solomon Islands",
        "languages": [
            "en"
        ]
    },
    "sc": {
        "name:en": "Seychelles",
        "languages": [
            "en",
            "fr"
        ]
    },
    "sd": {
        "name:en": "Sudan",
        "languages": [
            "ar",
            "en"
        ]
    },
    "se": {
        "name:en": "Sweden",
        "languages": [
            "en",
            "fi",
            "ro",
            "se",
            "sw",
            "yi"
        ]
    },
    "sg": {
        "name:en": "Singapore",
        "languages": [
            "en",
            "ms",
            "ta",
            "zh-CN"
        ]
    },
    "si": {
        "name:en": "Slovenia",
        "languages": [
            "hr",
            "hu",
            "it",
            "sl"
        ]
    },
    "sk": {
        "name:en": "Slovakia",
        "languages": [
            "bg",
            "cs",
            "de",
            "hu",
            "pl",
            "ro",
            "sk",
            "sr",
            "uk"
        ]
    },
    "sl": {
        "name:en": "Sierra Leone",
        "languages": [
            "en"
        ]
    },
    "sm": {
        "name:en": "San Marino",
        "languages": [
            "it"
        ]
    },
    "sn": {
        "name:en": "Senegal",
        "languages": [
            "fr",
            "wo"
        ]
    },
    "so": {
        "name:en": "Somalia",
        "languages": [
            "ar",
            "so"
        ]
    },
    "sr": {
        "name:en": "Suriname",
        "languages": [
            "nl"
        ]
    },
    "ss": {
        "name:en": "South Sudan",
        "languages": [
            "ar",
            "en"
        ]
    },
    "st": {
        "name:en": "São Tomé and Príncipe",
        "languages": [
            "pt"
        ]
    },
    "sv": {
        "name:en": "El Salvador",
        "languages": [
            "es"
        ]
    },
    "sy": {
        "name:en": "Syria",
        "languages": [
            "ar",
            "ku",
            "hy"
        ]
    },
    "sz": {
        "name:en": "Eswatini",
        "languages": [
            "en",
            "ss"
        ]
    },
    "td": {
        "name:en": "Chad",
        "languages": [
            "ar",
            "fr"
        ]
    },
    "tg": {
        "name:en": "Togo",
        "languages": [
            "fr"
        ]
    },
    "th": {
        "name:en": "Thailand",
        "languages": [
            "th"
        ]
    },
    "tj": {
        "name:en": "Tajikistan",
        "languages": [
            "ru",
            "tg"
        ]
    },
    "tl": {
        "name:en": "Timor-Leste",
        "languages": [
            "pt"
        ]
    },
    "tm": {
        "name:en": "Turkmenistan",
        "languages": [
            "ru",
            "tk"
        ]
    },
    "tn": {
        "name:en": "Tunisia",
        "languages": [
            "ar"
        ]
    },
    "to": {
        "name:en": "Tonga",
        "languages": [
            "en",
            "to"
        ]
    },
    "tr": {
        "name:en": "Turkey",
        "languages": [
            "ku",
            "tr"
        ]
    },
    "tt": {
        "name:en": "Trinidad and Tobago",
        "languages": [
            "en"
        ]
    },
    "tv": {
        "name:en": "Tuvalu",
        "languages": [
            "en"
        ]
    },
    "tz": {
        "name:en": "Tanzania",
        "languages": [
            "en",
            "sw"
        ]
    },
    "ua": {
        "name:en": "Ukraine",
        "languages": [
            "ru",
            "tt",
            "uk"
        ]
    },
    "ug": {
        "name:en": "Uganda",
        "languages": [
            "en",
            "sw"
        ]
    },
    "us": {
        "name:en": "United States",
        "languages": [
            "en",
            "es",
            "zh-CN"
        ]
    },
    "uy": {
        "name:en": "Uruguay",
        "languages": [
            "es"
        ]
    },
    "uz": {
        "name:en": "Uzbekistan",
        "languages": [
            "ru",
            "uz"
        ]
    },
    "va": {
        "name:en": "Vatican City",
        "languages": [
            "de",
            "it",
            "la"
        ]
    },
    "vc": {
        "name:en": "Saint Vincent and the Grenadines",
        "languages": [
            "en"
        ]
    },
    "ve": {
        "name:en": "Venezuela",
        "languages": [
            "es"
        ]
    },
    "vn": {
        "name:en": "Vietnam",
        "languages": [
            "km",
            "lo",
            "th",
            "vi"
        ]
    },
    "vu": {
        "name:en": "Vanuatu",
        "languages": [
            "bi",
            "en",
            "fr"
        ]
    },
    "ws": {
        "name:en": "Samoa",
        "languages": [
            "en",
            "sm"
        ]
    },
    "ye": {
        "name:en": "Yemen",
        "languages": [
            "ar"
        ]
    },
    "za": {
        "name:en": "South Africa",
        "languages": [
            "af",
            "en",
            "nd",
            "nr",
            "st",
            "ss",
            "ts",
            "tn",
            "ve",
            "xh",
            "zu"
        ]
    },
    "zm": {
        "name:en": "Zambia",
        "languages": [
            "en"
        ]
    },
    "zw": {
        "name:en": "Zimbabwe",
        "languages": [
            "en",
            "nd",
            "nr",
            "ny",
            "sn",
            "st",
            "to",
            "tn",
            "ts",
            "ve",
            "xh"
        ]
    }
}